GLOBALSTAR M045         
1 25676U 99019A   25196.35704958 -.00000080  00000+0  12205-3 0  9999
2 25676  51.9940 224.9807 0000397 234.8047 138.8440 12.27064039196856
GLOBALSTAR M019         
1 25677U 99019B   25196.59538837 -.00000019  00000+0  73808-3 0  9995
2 25677  51.9900 356.6643 0001629  51.7350  25.1259 12.13873680188599
GLOBALSTAR M044         
1 25678U 99019C   25196.63815512 -.00000099  00000+0 -20930-3 0  9996
2 25678  51.9991 311.4681 0006656  98.6924 274.7933 11.90254864174714
GLOBALSTAR M042         
1 25679U 99019D   25196.61329810 -.00000058  00000+0  31771-3 0  9995
2 25679  52.0039 330.7076 0002739  13.0940  72.8964 12.22084253188736
GLOBALSTAR M025         
1 25770U 99031A   25196.10923037 -.00000044  00000+0  71145-3 0  9990
2 25770  51.9819  94.5878 0001144 187.7303 321.3518 11.22559937484841
GLOBALSTAR M049         
1 25771U 99031B   25196.48189857 -.00000084  00000+0 -66346-3 0  9998
2 25771  51.9864 129.9102 0003281  48.3665 311.7412 11.12117000120575
GLOBALSTAR M047         
1 25772U 99031C   25196.49605064 -.00000047  00000+0  62341-3 0  9992
2 25772  51.9822 124.1426 0016748 313.1442  46.7963 11.31929020474318
GLOBALSTAR M052         
1 25773U 99031D   25196.57491867 -.00000048  00000+0  61211-3 0  9992
2 25773  51.9837 237.9765 0002967 221.5596 278.0098 11.15060218481677
